CTC1_L_00283016-03
1 10062U 22772CV  26075.70032407  .00000000  00000+0  00000-0 0  9991
2 10062  45.0000 180.0000 0000000   0.0000   0.0000 15.18623435    18
CTC1_L_00283016-04
1 10063U 26713RM  26075.70032407  .00000000  00000+0  00000-0 0  9991
2 10063  45.0000 180.0000 0000000   0.0000  90.0000 15.18623435    18
CTC1_L_00283017-01
1 10064U 26210AO  26075.70032407  .00000000  00000+0  00000-0 0  9994
2 10064  45.0000 192.0000 0000000   0.0000 192.0000 15.18623435    15
CTC1_L_00283017-02
1 10065U 25723LD  26075.70032407  .00000000  00000+0  00000-0 0  9993
2 10065  45.0000 192.0000 0000000   0.0000 282.0000 15.18623435    16
CTC1_L_00283017-03
1 10066U 26871BR  26075.70032407  .00000000  00000+0  00000-0 0  9999
2 10066  45.0000 192.0000 0000000   0.0000  12.0000 15.18623435    18
CTC1_L_00283017-04
1 10067U 24533AU  26075.70032407  .00000000  00000+0  00000-0 0  9993
2 10067  45.0000 192.0000 0000000   0.0000 102.0000 15.18623435    19
CTC1_L_00283018-01
1 10068U 22747GU  26075.70032407  .00000000  00000+0  00000-0 0  9999
2 10068  45.0000 204.0000 0000000   0.0000 204.0000 15.18623435    17
CTC1_L_00283018-02
1 10069U 25308MS  26075.70032407  .00000000  00000+0  00000-0 0  9996
2 10069  45.0000 204.0000 0000000   0.0000 294.0000 15.18623435    17
CTC1_L_00283018-03
1 10070U 25155GN  26075.70032407  .00000000  00000+0  00000-0 0  9998
2 10070  45.0000 204.0000 0000000   0.0000  24.0000 15.18623435    10
CTC1_L_00283018-04
1 10071U 24497IR  26075.70032407  .00000000  00000+0  00000-0 0  9997
2 10071  45.0000 204.0000 0000000   0.0000 114.0000 15.18623435    11
CTC1_L_00283019-01
1 10072U 23876KP  26075.70032407  .00000000  00000+0  00000-0 0  9998
2 10072  45.0000 216.0000 0000000   0.0000 216.0000 15.18623435    18
CTC1_L_00283019-02
1 10073U 26032KP  26075.70032407  .00000000  00000+0  00000-0 0  9996
2 10073  45.0000 216.0000 0000000   0.0000 306.0000 15.18623435    19
CTC1_L_00283019-03
1 10074U 22831DX  26075.70032407  .00000000  00000+0  00000-0 0  9990
2 10074  45.0000 216.0000 0000000   0.0000  36.0000 15.18623435    10
CTC1_L_00283019-04
1 10075U 24405QV  26075.70032407  .00000000  00000+0  00000-0 0  9990
2 10075  45.0000 216.0000 0000000   0.0000 126.0000 15.18623435    11
CTC1_L_00283020-01
1 10076U 22329OR  26075.70032407  .00000000  00000+0  00000-0 0  9994
2 10076  45.0000 228.0000 0000000   0.0000 228.0000 15.18623435    18
CTC1_L_00283020-02
1 10077U 24384IQ  26075.70032407  .00000000  00000+0  00000-0 0  9998
2 10077  45.0000 228.0000 0000000   0.0000 318.0000 15.18623435    19
CTC1_L_00283020-03
1 10078U 25054AP  26075.70032407  .00000000  00000+0  00000-0 0  9994
2 10078  45.0000 228.0000 0000000   0.0000  48.0000 15.18623435    10
CTC1_L_00283020-04
1 10079U 24005FW  26075.70032407  .00000000  00000+0  00000-0 0  9990
2 10079  45.0000 228.0000 0000000   0.0000 138.0000 15.18623435    11
CTC1_L_00283021-01
1 10080U 22178GM  26075.70032407  .00000000  00000+0  00000-0 0  9991
2 10080  45.0000 240.0000 0000000   0.0000 240.0000 15.18623435    11
CTC1_L_00283021-02
1 10081U 26903GU  26075.70032407  .00000000  00000+0  00000-0 0  9992
2 10081  45.0000 240.0000 0000000   0.0000 330.0000 15.18623435    12
CTC1_L_00283021-03
1 10082U 23865UM  26075.70032407  .00000000  00000+0  00000-0 0  9997
2 10082  45.0000 240.0000 0000000   0.0000  60.0000 15.18623435    13
CTC1_L_00283021-04
1 10083U 23961QT  26075.70032407  .00000000  00000+0  00000-0 0  9995
2 10083  45.0000 240.0000 0000000   0.0000 150.0000 15.18623435    14
CTC1_L_00283022-01
1 10084U 24751LV  26075.70032407  .00000000  00000+0  00000-0 0  9994
2 10084  45.0000 252.0000 0000000   0.0000 252.0000 15.18623435    11
CTC1_L_00283022-02
1 10085U 25916AJ  26075.70032407  .00000000  00000+0  00000-0 0  9999
2 10085  45.0000 252.0000 0000000   0.0000 342.0000 15.18623435    12
CTC1_L_00283022-03
1 10086U 26620SS  26075.70032407  .00000000  00000+0  00000-0 0  9993
2 10086  45.0000 252.0000 0000000   0.0000  72.0000 15.18623435    13
CTC1_L_00283022-04
1 10087U 22616WE  26075.70032407  .00000000  00000+0  00000-0 0  9995
2 10087  45.0000 252.0000 0000000   0.0000 162.0000 15.18623435    14
CTC1_L_00283023-01
1 10088U 24453PU  26075.70032407  .00000000  00000+0  00000-0 0  9997
2 10088  45.0000 264.0000 0000000   0.0000 264.0000 15.18623435    11
CTC1_L_00283023-02
1 10089U 25018BP  26075.70032407  .00000000  00000+0  00000-0 0  9996
2 10089  45.0000 264.0000 0000000   0.0000 354.0000 15.18623435    12
CTC1_L_00283023-03
1 10090U 22417IA  26075.70032407  .00000000  00000+0  00000-0 0  9998
2 10090  45.0000 264.0000 0000000   0.0000  84.0000 15.18623435    14
CTC1_L_00283023-04
1 10091U 23887XI  26075.70032407  .00000000  00000+0  00000-0 0  9991
2 10091  45.0000 264.0000 0000000   0.0000 174.0000 15.18623435    15
CTC1_L_00283024-01
1 10092U 26235HQ  26075.70032407  .00000000  00000+0  00000-0 0  9992
2 10092  45.0000 276.0000 0000000   0.0000 276.0000 15.18623435    12
CTC1_L_00283024-02
1 10093U 25182QA  26075.70032407  .00000000  00000+0  00000-0 0  9993
2 10093  45.0000 276.0000 0000000   0.0000   6.0000 15.18623435    14
CTC1_L_00283024-03
1 10094U 22899JV  26075.70032407  .00000000  00000+0  00000-0 0  9996
2 10094  45.0000 276.0000 0000000   0.0000  96.0000 15.18623435    14
CTC1_L_00283024-04
1 10095U 25284VY  26075.70032407  .00000000  00000+0  00000-0 0  9998
2 10095  45.0000 276.0000 0000000   0.0000 186.0000 15.18623435    15
CTC1_L_00283025-01
1 10096U 24996DE  26075.70032407  .00000000  00000+0  00000-0 0  9998
2 10096  45.0000 288.0000 0000000   0.0000 288.0000 15.18623435    12
CTC1_L_00283025-02
1 10097U 23989PC  26075.70032407  .00000000  00000+0  00000-0 0  9990
2 10097  45.0000 288.0000 0000000   0.0000  18.0000 15.18623435    14
CTC1_L_00283025-03
1 10098U 23130VC  26075.70032407  .00000000  00000+0  00000-0 0  9999
2 10098  45.0000 288.0000 0000000   0.0000 108.0000 15.18623435    15
CTC1_L_00283025-04
1 10099U 26760WQ  26075.70032407  .00000000  00000+0  00000-0 0  9992
2 10099  45.0000 288.0000 0000000   0.0000 198.0000 15.18623435    15
CTC1_L_00283026-01
1 10100U 25882JO  26075.70032407  .00000000  00000+0  00000-0 0  9999
2 10100  45.0000 300.0000 0000000   0.0000 300.0000 15.18623435    18
CTC1_L_00283026-02
1 10101U 25866RA  26075.70032407  .00000000  00000+0  00000-0 0  9992
2 10101  45.0000 300.0000 0000000   0.0000  30.0000 15.18623435    19
CTC1_L_00283026-03
1 10102U 24530V   26075.70032407  .00000000  00000+0  00000-0 0  9990
2 10102  45.0000 300.0000 0000000   0.0000 120.0000 15.18623435    10
CTC1_L_00283026-04
1 10103U 26739XY  26075.70032407  .00000000  00000+0  00000-0 0  9994
2 10103  45.0000 300.0000 0000000   0.0000 210.0000 15.18623435    11
CTC1_L_00283027-01
1 10104U 22295ZK  26075.70032407  .00000000  00000+0  00000-0 0  9998
2 10104  45.0000 312.0000 0000000   0.0000 312.0000 15.18623435    18
CTC1_L_00283027-02
1 10105U 24128WV  26075.70032407  .00000000  00000+0  00000-0 0  9996
2 10105  45.0000 312.0000 0000000   0.0000  42.0000 15.18623435    19
CTC1_L_00283027-03
1 10106U 24768XU  26075.70032407  .00000000  00000+0  00000-0 0  9997
2 10106  45.0000 312.0000 0000000   0.0000 132.0000 15.18623435    10
CTC1_L_00283027-04
1 10107U 25394SG  26075.70032407  .00000000  00000+0  00000-0 0  9994
2 10107  45.0000 312.0000 0000000   0.0000 222.0000 15.18623435    11
CTC1_L_00283028-01
1 10108U 23942LQ  26075.70032407  .00000000  00000+0  00000-0 0  9992
2 10108  45.0000 324.0000 0000000   0.0000 324.0000 15.18623435    18
CTC1_L_00283028-02
1 10109U 22243WM  26075.70032407  .00000000  00000+0  00000-0 0  9996
2 10109  45.0000 324.0000 0000000   0.0000  54.0000 15.18623435    19
CTC1_L_00283028-03
1 10110U 22561QG  26075.70032407  .00000000  00000+0  00000-0 0  9991
2 10110  45.0000 324.0000 0000000   0.0000 144.0000 15.18623435    11
CTC1_L_00283028-04
1 10111U 26643KR  26075.70032407  .00000000  00000+0  00000-0 0  9997
2 10111  45.0000 324.0000 0000000   0.0000 234.0000 15.18623435    12
CTC1_L_00283029-01
1 10112U 26393G   26075.70032407  .00000000  00000+0  00000-0 0  9990
2 10112  45.0000 336.0000 0000000   0.0000 336.0000 15.18623435    19
CTC1_L_00283029-02
1 10113U 26646BB  26075.70032407  .00000000  00000+0  00000-0 0  9992
2 10113  45.0000 336.0000 0000000   0.0000  66.0000 15.18623435    10
CTC1_L_00283029-03
1 10114U 26764ZS  26075.70032407  .00000000  00000+0  00000-0 0  9994
2 10114  45.0000 336.0000 0000000   0.0000 156.0000 15.18623435    11
CTC1_L_00283029-04
1 10115U 26218JT  26075.70032407  .00000000  00000+0  00000-0 0  9999
2 10115  45.0000 336.0000 0000000   0.0000 246.0000 15.18623435    12
CTC1_L_00283030-01
1 10116U 22568NC  26075.70032407  .00000000  00000+0  00000-0 0  9994
2 10116  45.0000 348.0000 0000000   0.0000 348.0000 15.18623435    19
CTC1_L_00283030-02
1 10117U 23626BP  26075.70032407  .00000000  00000+0  00000-0 0  9991
2 10117  45.0000 348.0000 0000000   0.0000  78.0000 15.18623435    10
CTC1_L_00283030-03
1 10118U 22078VL  26075.70032407  .00000000  00000+0  00000-0 0  9992
2 10118  45.0000 348.0000 0000000   0.0000 168.0000 15.18623435    11
CTC1_L_00283030-04
1 10119U 24908IP  26075.70032407  .00000000  00000+0  00000-0 0  9997
2 10119  45.0000 348.0000 0000000   0.0000 258.0000 15.18623435    12
